MALLIGYONG-1            
1 58400U 23179A   24246.51491066  .00010550  00000+0  45874-3 0  9990
2 58400  97.3913 132.0622 0000402  91.1058 269.0224 15.22447142 43483
